1 47522U 21006DN  21319.43390600  .00001543  00000-0  90639-4 0  9994
2 47522  97.4783  17.7941 0007141 320.8462  39.2251 15.13163778 45831
1 47522U 21006DN  21319.89680453  .00001722  00000-0  10069-3 0  9999
2 47522  97.4783  18.2480 0007108 319.1280  40.9418 15.13166597 45901
1 47522U 21006DN  21320.42582903  .00002307  00000-0  13367-3 0  9995
2 47522  97.4783  18.7670 0007093 316.9340  43.1335 15.13172423 45988
1 47522U 21006DN  21320.69034238  .00002440  00000-0  14116-3 0  9998
2 47522  97.4786  19.0265 0007027 315.9168  44.1502 15.13173744 46029
1 47522U 21006DN  21321.15323918  .00002139  00000-0  12421-3 0  9998
2 47522  97.4785  19.4805 0007011 314.0283  46.0370 15.13175065 46092
1 47522U 21006DN  21321.68226324  .00002076  00000-0  12065-3 0  9993
2 47522  97.4784  19.9995 0006991 311.7984  48.2650 15.13177487 46178
1 47522U 21006DN  21322.14515942  .00001935  00000-0  11268-3 0  9999
2 47522  97.4782  20.4534 0006952 309.9725  50.0895 15.13178870 46248
1 47522U 21006DN  21322.40967107  .00001780  00000-0  10395-3 0  9990
2 47522  97.4783  20.7128 0006935 308.9189  51.1423 15.13179513 46283
1 47522U 21006DN  21322.60805511  .00001671  00000-0  97789-4 0  9994
2 47522  97.4781  20.9075 0006906 308.1646  51.8963 15.13179838 46312
1 47522U 21006DN  21323.40159007  .00001702  00000-0  99565-4 0  9994
2 47522  97.4778  21.6857 0006839 304.9300  55.1288 15.13182194 46439
1 47522U 21006DN  21323.59997355  .00001826  00000-0  10656-3 0  9990
2 47522  97.4778  21.8803 0006825 304.0794  55.9789 15.13183168 46464
1 47522U 21006DN  21324.39350628  .00002063  00000-0  11987-3 0  9997
2 47522  97.4774  22.6585 0006793 300.7498  59.3064 15.13186151 46586
1 47522U 21006DN  21324.59188935  .00002101  00000-0  12201-3 0  9992
2 47522  97.4774  22.8531 0006832 299.7440  60.3111 15.13186788 46612
1 47522U 21006DN  21325.45154827  .00002025  00000-0  11772-3 0  9998
2 47522  97.4773  23.6963 0006779 296.2102  63.8432 15.13189110 46746
1 47522U 21006DN  21325.64993013  .00001663  00000-0  97317-4 0  9994
2 47522  97.4774  23.8905 0006821 295.5210  64.5315 15.13189591 46779
1 47522U 21006DN  21326.11282195  .00001704  00000-0  99611-4 0  9994
2 47522  97.4772  24.3445 0006830 293.6897  66.3618 15.13191483 46849
1 47522U 21006DN  21326.90634917  .00001667  00000-0  97531-4 0  9991
2 47522  97.4770  25.1226 0006853 290.2860  69.7635 15.13194191 46969
1 47522U 21006DN  21327.10473084  .00001653  00000-0  96758-4 0  9995
2 47522  97.4769  25.3171 0006854 289.4615  70.5876 15.13194838 46995
1 47522U 21006DN  21327.43536621  .00001745  00000-0  10195-3 0  9990
2 47522  97.4770  25.6414 0006879 287.9450  72.1031 15.13196660 47040
1 47522U 21006DN  21327.63374736  .00001783  00000-0  10409-3 0  9999
2 47522  97.4769  25.8359 0006872 287.0918  72.9561 15.13197693 47077
1 47522U 21006DN  21328.09663632  .00001901  00000-0  11072-3 0  9995
2 47522  97.4768  26.2898 0006849 285.1409  74.9064 15.13200233 47140
1 47522U 21006DN  21328.69177658  .00002148  00000-0  12458-3 0  9992
2 47522  97.4768  26.8734 0006798 282.6952  77.3519 15.13204710 47239
1 47522U 21006DN  21329.41916960  .00002024  00000-0  11763-3 0  9991
2 47522  97.4764  27.5865 0006715 279.2682  80.7790 15.13209475 47343
1 47522U 21006DN  21330.14656139  .00001775  00000-0  10359-3 0  9994
2 47522  97.4763  28.2997 0006689 276.1397  83.9072 15.13212292 47456
1 47522U 21006DN  21330.41106738  .00002118  00000-0  12286-3 0  9992
2 47522  97.4764  28.5591 0006681 275.0393  85.0075 15.13214351 47494
1 47522U 21006DN  21330.60944673  .00002177  00000-0  12619-3 0  9996
2 47522  97.4764  28.7536 0006673 274.1364  85.9105 15.13215357 47528
1 47522U 21006DN  21331.40296516  .00001869  00000-0  10888-3 0  9994
2 47522  97.4765  29.5316 0006650 270.7963  89.2507 15.13216233 47646
1 47522U 21006DN  21331.60134416  .00002179  00000-0  12631-3 0  9999
2 47522  97.4764  29.7261 0006645 269.7986  90.2483 15.13217857 47674
1 47522U 21006DN  21332.39486064  .00002205  00000-0  12776-3 0  9995
2 47522  97.4765  30.5042 0006664 266.4336  93.6133 15.13219645 47795
1 47522U 21006DN  21332.59323944  .00002264  00000-0  13106-3 0  9997
2 47522  97.4766  30.6988 0006688 265.5673  94.4794 15.13220350 47827
1 47522U 21006DN  21332.92387093  .00002079  00000-0  12068-3 0  9999
2 47522  97.4768  31.0232 0006766 264.3450  95.7009 15.13220364 47876
1 47522U 21006DN  21333.38675425  .00002544  00000-0  14680-3 0  9998
2 47522  97.4765  31.4770 0006724 262.3686  97.6782 15.13223174 47946
1 47522U 21006DN  21333.65125741  .00001896  00000-0  11036-3 0  9990
2 47522  97.4764  31.7366 0006731 261.7918  98.2550 15.13224107 47989
1 47522U 21006DN  21334.18026548  .00001929  00000-0  11219-3 0  9994
2 47522  97.4763  32.2554 0006747 259.5228 100.5243 15.13226088 48065
1 47522U 21006DN  21334.90765167  .00001627  00000-0  95221-4 0  9992
2 47522  97.4760  32.9684 0006809 257.0650 102.9821 15.13226459 48176
1 47522U 21006DN  21335.43665777  .00002003  00000-0  11638-3 0  9995
2 47522  97.4763  33.4870 0006789 254.4033 105.6449 15.13230470 48258
1 47522U 21006DN  21335.76728716  .00001764  00000-0  10290-3 0  9990
2 47522  97.4762  33.8111 0006811 252.7893 107.2593 15.13230171 48302
1 47522U 21006DN  21336.16404141  .00001746  00000-0  10188-3 0  9994
2 47522  97.4759  34.2003 0006832 251.1161 108.9330 15.13231509 48366
1 47522U 21006DN  21336.42854419  .00001777  00000-0  10363-3 0  9999
2 47522  97.4759  34.4596 0006836 249.8753 110.1743 15.13232568 48404
1 47522U 21006DN  21336.89142365  .00001570  00000-0  91962-4 0  9996
2 47522  97.4758  34.9134 0006866 247.9437 112.1065 15.13233088 48471
1 47522U 21006DN  21337.42042835  .00001549  00000-0  90767-4 0  9995
2 47522  97.4758  35.4321 0006891 245.7896 114.2615 15.13234790 48552
1 47522U 21006DN  21338.14780788  .00001591  00000-0  93131-4 0  9996
2 47522  97.4756  36.1453 0006920 242.7582 117.2945 15.13237888 48668
1 47522U 21006DN  21338.67681101  .00001499  00000-0  87968-4 0  9991
2 47522  97.4755  36.6640 0006943 240.5058 119.5481 15.13239288 48744
1 47522U 21006DN  21339.60256539  .00001352  00000-0  79703-4 0  9994
2 47522  97.4754  37.5717 0006979 236.5847 123.4717 15.13241574 48880
1 47522U 21006DN  21339.73481585  .00001345  00000-0  79296-4 0  9998
2 47522  97.4754  37.7013 0006984 236.0603 123.9965 15.13241956 48909
1 47522U 21006DN  21340.39606716  .00001360  00000-0  80155-4 0  9990
2 47522  97.4753  38.3497 0007035 233.5643 126.4941 15.13244238 49005
1 47522U 21006DN  21340.92506797  .00001352  00000-0  79688-4 0  9997
2 47522  97.4752  38.8683 0007043 231.1859 128.8744 15.13245816 49086
1 47522U 21006DN  21341.12344302  .00001355  00000-0  79862-4 0  9999
2 47522  97.4751  39.0628 0007051 230.3786 129.6823 15.13246480 49115
1 47522U 21006DN  21342.11531801  .00001161  00000-0  68935-4 0  9995
2 47522  97.4750  40.0353 0007107 226.2726 133.7917 15.13248275 49261
1 47522U 21006DN  21342.71043144  .00001940  00000-0  11272-3 0  9995
2 47522  97.4751  40.6186 0007161 223.7758 136.2906 15.13259812 49354
1 47522U 21006DN  21343.70229724  .00001804  00000-0  10504-3 0  9991
2 47522  97.4746  41.5912 0007247 220.3183 139.7512 15.13263989 49503
1 47522U 21006DN  21344.42966307  .00001765  00000-0  10282-3 0  9995
2 47522  97.4748  42.3044 0007328 217.6552 142.4167 15.13267134 49614
1 47522U 21006DN  21344.89253112  .00001534  00000-0  89836-4 0  9995
2 47522  97.4748  42.7582 0007355 216.0744 143.9992 15.13268731 49684
1 47522U 21006DN  21345.15702655  .00001660  00000-0  96914-4 0  9991
2 47522  97.4748  43.0175 0007370 215.2292 144.8453 15.13270625 49724
1 47522U 21006DN  21345.42152213  .00002081  00000-0  12060-3 0  9997
2 47522  97.4748  43.2769 0007398 214.1306 145.9451 15.13273089 49760
1 47522U 21006DN  21345.61989365  .00002131  00000-0  12338-3 0  9998
2 47522  97.4748  43.4714 0007411 213.3894 146.6871 15.13274233 49790
1 47522U 21006DN  21346.41337818  .00002259  00000-0  13054-3 0  9994
2 47522  97.4749  44.2494 0007470 210.3981 149.6818 15.13278547 49914
1 47522U 21006DN  21346.94236645  .00002327  00000-0  13437-3 0  9999
2 47522  97.4749  44.7680 0007504 207.8789 152.2041 15.13281659 49995
1 47522U 21006DN  21347.40523060  .00002754  00000-0  15836-3 0  9990
2 47522  97.4750  45.2219 0007543 206.3922 153.6926 15.13285329 50062
1 47522U 21006DN  21347.60360001  .00003352  00000-0  19190-3 0  9998
2 47522  97.4749  45.4164 0007561 205.6179 154.4678 15.13288620 50090
1 47522U 21006DN  21348.59544873  .00003546  00000-0  20278-3 0  9992
2 47522  97.4749  46.3889 0007650 202.0793 158.0110 15.13294238 50246
1 47522U 21006DN  21349.12443287  .00003171  00000-0  18171-3 0  9992
2 47522  97.4747  46.9076 0007698 199.9903 160.1028 15.13296084 50329
1 47522U 21006DN  21349.38892469  .00003445  00000-0  19705-3 0  9998
2 47522  97.4747  47.1669 0007725 199.0044 161.0900 15.13298289 50360
1 47522U 21006DN  21349.71953822  .00003956  00000-0  22574-3 0  9991
2 47522  97.4747  47.4911 0007762 197.8301 162.2659 15.13302147 50415
1 47522U 21006DN  21350.44688663  .00004387  00000-0  24989-3 0  9992
2 47522  97.4745  48.2043 0007841 195.4520 164.6473 15.13307618 50523
1 47522U 21006DN  21350.57913112  .00004959  00000-0  28193-3 0  9992
2 47522  97.4745  48.3339 0007842 194.9936 165.1064 15.13310294 50546
1 47522U 21006DN  21351.04198684  .00004650  00000-0  26457-3 0  9993
2 47522  97.4743  48.7877 0007880 193.3693 166.7330 15.13313717 50614
1 47522U 21006DN  21351.70320663  .00004639  00000-0  26390-3 0  9993
2 47522  97.4742  49.4360 0007938 190.7562 169.3501 15.13320325 50711
1 47522U 21006DN  21352.09993675  .00004678  00000-0  26608-3 0  9990
2 47522  97.4740  49.8250 0007976 189.2158 170.8928 15.13324696 50778
1 47522U 21006DN  21352.43054491  .00004925  00000-0  27987-3 0  9998
2 47522  97.4739  50.1491 0008001 187.9241 172.1865 15.13328390 50822
1 47522U 21006DN  21352.69503079  .00005255  00000-0  29832-3 0  9995
2 47522  97.4739  50.4085 0008024 187.0924 173.0195 15.13331759 50861
